OBJECT_NAME,OBJECT_ID,EPOCH,MEAN_MOTION,ECCENTRICITY,INCLINATION,RA_OF_ASC_NODE,ARG_OF_PERICENTER,MEAN_ANOMALY,EPHEMERIS_TYPE,CLASSIFICATION_TYPE,NORAD_CAT_ID,ELEMENT_SET_NO,REV_AT_EPOCH,BSTAR,MEAN_MOTION_DOT,MEAN_MOTION_DDOT
KEPLER-16 (ASTRAEUS),2022-002CB,2023-11-12T18:14:39.970176,15.25694015,.0007647,97.4218,21.9004,82.3693,277.8413,0,U,51057,999,10134,.48823E-3,.12385E-3,0
LEMUR-2-DJIRANG,2022-002CC,2023-11-12T04:30:59.832000,15.34504490,.0005455,97.4196,22.9876,83.3168,276.8695,0,U,51058,999,10136,.12566E-2,.4212E-3,0
KEPLER-17 (KARINA),2022-002CD,2023-11-12T17:56:49.180416,15.29919222,.0007248,97.4241,22.5876,94.8413,265.3655,0,U,51059,999,10137,.12353E-2,.35865E-3,0
ETV-A1,2022-002CE,2023-11-12T17:38:28.890240,15.17789915,.0010317,97.4237,18.5707,101.6470,258.5923,0,U,51060,999,10110,.37586E-3,.7542E-4,0
BRO-5,2022-002CF,2023-11-12T18:14:54.046464,15.18653219,.0010392,97.4282,19.5516,103.5269,256.7124,0,U,51061,999,10115,.30589E-3,.6279E-4,0
TEVEL-7,2022-002CG,2023-11-12T17:34:59.812608,15.33615643,.0006864,97.4172,23.3522,71.5717,288.6271,0,U,51062,999,10145,.12203E-2,.39767E-3,0
TEVEL-4,2022-002CH,2023-11-12T17:53:42.660960,15.33512252,.0006792,97.4170,23.3286,71.4526,288.7453,0,U,51063,999,10145,.11848E-2,.38475E-3,0
FLOCK 4X-4,2022-002CJ,2023-11-12T03:49:50.251296,15.33923318,.0006863,97.4213,24.5933,69.2219,290.9759,0,U,51064,999,10147,.65477E-3,.21457E-3,0
FLOCK 4X-7,2022-002CK,2023-11-12T10:49:18.769152,15.33664986,.0007241,97.4223,25.0535,77.1411,283.0640,0,U,51065,999,10151,.59273E-3,.19255E-3,0
FLOCK 4X-14,2022-002CL,2023-11-12T17:43:24.858624,15.34956701,.0007135,97.4240,25.7152,79.0378,281.1667,0,U,51066,999,10156,.10097E-2,.34294E-3,0
DEWASAT-1,2022-002CM,2023-11-12T18:36:54.485568,15.28136424,.0007076,97.4198,21.4751,94.4704,265.7344,0,U,51067,999,10132,.10103E-2,.2773E-3,0
TEVEL-2,2022-002CP,2023-11-12T17:01:35.942592,15.33670703,.0006905,97.4158,23.2515,72.8694,287.3304,0,U,51069,999,10145,.11253E-2,.36714E-3,0
ICEYE-X14,2022-002CQ,2023-11-12T18:39:20.986272,15.23666941,.0003687,97.4247,22.3323,104.1309,256.0338,0,U,51070,999,10136,.81126E-3,.19423E-3,0
DELFI-PQ,2022-002CU,2023-11-12T18:12:31.940064,15.61824762,.0003183,97.4378,32.9192,67.4485,292.7109,0,U,51074,999,10194,.23019E-2,.203986E-2,0
USA 320,2022-002CV,2023-11-12T11:01:11.135424,15.12735852,.000118,97.4339,17.1136,103.9362,256.2000,0,U,51075,999,10096,.95175E-3,.1664E-3,0
HADES,2022-002DA,2023-11-12T11:35:54.688704,15.39376529,.0008629,97.4450,28.3809,93.6375,266.5857,0,U,51080,999,10161,.1051E-2,.4122E-3,0
EASAT-2,2022-002DB,2023-11-12T10:42:29.701440,15.39802839,.0008671,97.4436,28.3577,93.2487,266.9751,0,U,51081,999,10161,.10962E-2,.43615E-3,0
DODONA,2022-002DE,2023-11-12T04:16:26.683968,15.38635001,.0004271,97.4221,25.1287,66.6283,293.5411,0,U,51084,999,10149,.11648E-2,.44578E-3,0
VZLUSAT-2,2022-002DF,2023-11-12T17:37:49.012320,15.20891150,.0013475,97.4212,19.1365,95.0368,265.2406,0,U,51085,999,10115,.61722E-3,.13621E-3,0
LABSAT,2022-002DG,2023-11-12T10:15:51.268608,15.32195903,.0005683,97.4150,23.1027,67.8797,292.3047,0,U,51086,999,10142,.82697E-3,.25698E-3,0
STORK-1,2022-002DH,2023-11-12T17:23:15.597312,15.39234013,.0007872,97.4278,25.0649,76.5914,283.6209,0,U,51087,999,10150,.16599E-2,.65032E-3,0
STORK-2,2022-002DJ,2023-11-12T17:38:08.104992,15.39652419,.0005086,97.4171,25.0915,52.6023,307.5685,0,U,51088,999,10157,.16045E-2,.63677E-3,0
SW1FT,2022-002DK,2023-11-12T17:33:38.531808,15.39702447,.0006018,97.4171,24.8401,73.2922,286.8984,0,U,51089,999,10154,.16764E-2,.6668E-3,0
TECHEDSAT 13,2022-003B,2023-11-12T13:42:24.700608,15.44436877,.0010165,44.9878,134.1393,236.8477,123.1438,0,U,51095,999,10222,.87708E-3,.41416E-3,0
GEARRS-3,2022-003D,2023-11-12T12:45:45.195840,15.43298718,.0009294,44.9512,133.2235,228.3395,131.6698,0,U,51097,999,10221,.76898E-3,.34845E-3,0
SHIYAN 13 (SY-13),2022-004A,2023-11-12T13:27:19.690848,13.92361126,.053268,98.5672,0.3020,47.7781,316.7331,0,U,51102,999,9344,.15387E-3,.597E-5,0
STARLINK-3366,2022-005A,2023-11-12T11:15:36.282816,15.08841646,.0001289,53.2144,136.9293,93.6553,266.4587,0,U,51104,999,10082,.59977E-4,.667E-5,0
STARLINK-3350,2022-005B,2023-11-12T12:13:53.888736,15.08836804,.0001312,53.2160,136.7497,94.3272,265.7870,0,U,51105,999,10083,.12388E-3,.1684E-4,0
STARLINK-3176,2022-005C,2023-11-12T11:42:06.236352,15.08838805,.0001361,53.2171,136.8493,94.1998,265.9149,0,U,51106,999,10082,.73421E-4,.881E-5,0
STARLINK-3368,2022-005D,2023-11-12T19:37:42.195072,15.08842233,.000129,53.2154,145.3514,93.0153,267.0987,0,U,51107,999,10185,.19734E-4,.26E-6,0
