KEPLER-16 (ASTRAEUS)    
1 51057U 22002CB  23316.76018484  .00012385  00000+0  48823-3 0  9993
2 51057  97.4218  21.9004 0007647  82.3693 277.8413 15.25694015101341
LEMUR-2-DJIRANG         
1 51058U 22002CC  23316.18819250  .00042120  00000+0  12566-2 0  9994
2 51058  97.4196  22.9876 0005455  83.3168 276.8695 15.34504490101368
KEPLER-17 (KARINA)      
1 51059U 22002CD  23316.74779144  .00035865  00000+0  12353-2 0  9996
2 51059  97.4241  22.5876 0007248  94.8413 265.3655 15.29919222101375
ETV-A1                  
1 51060U 22002CE  23316.73505660  .00007542  00000+0  37586-3 0  9994
2 51060  97.4237  18.5707 0010317 101.6470 258.5923 15.17789915101105
BRO-5                   
1 51061U 22002CF  23316.76034776  .00006279  00000+0  30589-3 0  9995
2 51061  97.4282  19.5516 0010392 103.5269 256.7124 15.18653219101151
TEVEL-7                 
1 51062U 22002CG  23316.73263672  .00039767  00000+0  12203-2 0  9992
2 51062  97.4172  23.3522 0006864  71.5717 288.6271 15.33615643101457
TEVEL-4                 
1 51063U 22002CH  23316.74563265  .00038475  00000+0  11848-2 0  9994
2 51063  97.4170  23.3286 0006792  71.4526 288.7453 15.33512252101455
FLOCK 4X-4              
1 51064U 22002CJ  23316.15960939  .00021457  00000+0  65477-3 0  9999
2 51064  97.4213  24.5933 0006863  69.2219 290.9759 15.33923318101474
FLOCK 4X-7              
1 51065U 22002CK  23316.45091168  .00019255  00000+0  59273-3 0  9992
2 51065  97.4223  25.0535 0007241  77.1411 283.0640 15.33664986101513
FLOCK 4X-14             
1 51066U 22002CL  23316.73848216  .00034294  00000+0  10097-2 0  9998
2 51066  97.4240  25.7152 0007135  79.0378 281.1667 15.34956701101563
DEWASAT-1               
1 51067U 22002CM  23316.77563062  .00027730  00000+0  10103-2 0  9991
2 51067  97.4198  21.4751 0007076  94.4704 265.7344 15.28136424101321
TEVEL-2                 
1 51069U 22002CP  23316.70944378  .00036714  00000+0  11253-2 0  9998
2 51069  97.4158  23.2515 0006905  72.8694 287.3304 15.33670703101454
ICEYE-X14               
1 51070U 22002CQ  23316.77732623  .00019423  00000+0  81126-3 0  9990
2 51070  97.4247  22.3323 0003687 104.1309 256.0338 15.23666941101366
DELFI-PQ                
1 51074U 22002CU  23316.75870301  .00203986  00000+0  23019-2 0  9993
2 51074  97.4378  32.9192 0003183  67.4485 292.7109 15.61824762101949
USA 320                 
1 51075U 22002CV  23316.45915666  .00016640  00000+0  95175-3 0  9997
2 51075  97.4339  17.1136 0001180 103.9362 256.2000 15.12735852100968
HADES                   
1 51080U 22002DA  23316.48327186  .00041220  00000+0  10510-2 0  9991
2 51080  97.4450  28.3809 0008629  93.6375 266.5857 15.39376529101611
EASAT-2                 
1 51081U 22002DB  23316.44617710  .00043615  00000+0  10962-2 0  9994
2 51081  97.4436  28.3577 0008671  93.2487 266.9751 15.39802839101610
DODONA                  
1 51084U 22002DE  23316.17808662  .00044578  00000+0  11648-2 0  9996
2 51084  97.4221  25.1287 0004271  66.6283 293.5411 15.38635001101497
VZLUSAT-2               
1 51085U 22002DF  23316.73459505  .00013621  00000+0  61722-3 0  9991
2 51085  97.4212  19.1365 0013475  95.0368 265.2406 15.20891150101157
LABSAT                  
1 51086U 22002DG  23316.42767672  .00025698  00000+0  82697-3 0  9996
2 51086  97.4150  23.1027 0005683  67.8797 292.3047 15.32195903101422
STORK-1                 
1 51087U 22002DH  23316.72448608  .00065032  00000+0  16599-2 0  9998
2 51087  97.4278  25.0649 0007872  76.5914 283.6209 15.39234013101500
STORK-2                 
1 51088U 22002DJ  23316.73481603  .00063677  00000+0  16045-2 0  9991
2 51088  97.4171  25.0915 0005086  52.6023 307.5685 15.39652419101575
SW1FT                   
1 51089U 22002DK  23316.73169597  .00066680  00000+0  16764-2 0  9992
2 51089  97.4171  24.8401 0006018  73.2922 286.8984 15.39702447101541
TECHEDSAT 13            
1 51095U 22003B   23316.57111922  .00041416  00000+0  87708-3 0  9998
2 51095  44.9878 134.1393 0010165 236.8477 123.1438 15.44436877102224
GEARRS-3                
1 51097U 22003D   23316.53177310  .00034845  00000+0  76898-3 0  9995
2 51097  44.9512 133.2235 0009294 228.3395 131.6698 15.43298718102212
SHIYAN 13 (SY-13)       
1 51102U 22004A   23316.56064457  .00000597  00000+0  15387-3 0  9996
2 51102  98.5672   0.3020 0532680  47.7781 316.7331 13.92361126 93449
STARLINK-3366           
1 51104U 22005A   23316.46916994  .00000667  00000+0  59977-4 0  9992
2 51104  53.2144 136.9293 0001289  93.6553 266.4587 15.08841646100828
STARLINK-3350           
1 51105U 22005B   23316.50965149  .00001684  00000+0  12388-3 0  9998
2 51105  53.2160 136.7497 0001312  94.3272 265.7870 15.08836804100832
STARLINK-3176           
1 51106U 22005C   23316.48757218  .00000881  00000+0  73421-4 0  9996
2 51106  53.2171 136.8493 0001361  94.1998 265.9149 15.08838805100822
STARLINK-3368           
1 51107U 22005D   23316.81784948  .00000026  00000+0  19734-4 0  9992
2 51107  53.2154 145.3514 0001290  93.0153 267.0987 15.08842233101852
